{
    "links": {
        "self": "http://www.neowsapp.com/rest/v1/neo/3842660?api_key=iIulBulltgU6a56xZRHN4H3l9WmuAYTsLGpBGhQ2"
    },
    "id": "3842660",
    "neo_reference_id": "3842660",
    "name": "(2019 KK4)",
    "designation": "2019 KK4",
    "nasa_jpl_url": "http://ssd.jpl.nasa.gov/sbdb.cgi?sstr=3842660",
    "absolute_magnitude_h": 22.8,
    "estimated_diameter": {
        "kilometers": {
            "estimated_diameter_min": 0.0732073989,
            "estimated_diameter_max": 0.1636967205
        },
        "meters": {
            "estimated_diameter_min": 73.2073989347,
            "estimated_diameter_max": 163.696720474
        },
        "miles": {
            "estimated_diameter_min": 0.0454889547,
            "estimated_diameter_max": 0.1017163949
        },
        "feet": {
            "estimated_diameter_min": 240.181762721,
            "estimated_diameter_max": 537.0627483999
        }
    },
    "is_potentially_hazardous_asteroid": false,
    "close_approach_data": [
        {
            "close_approach_date": "2017-10-27",
            "close_approach_date_full": "2017-Oct-27 23:28",
            "epoch_date_close_approach": 1509146880000,
            "relative_velocity": {
                "kilometers_per_second": "15.4835225795",
                "kilometers_per_hour": "55740.6812863321",
                "miles_per_hour": "34635.0916581656"
            },
            "miss_distance": {
                "astronomical": "0.2995342272",
                "lunar": "116.5188143808",
                "kilometers": "44809682.381216064",
                "miles": "27843445.5139631232"
            },
            "orbiting_body": "Earth"
        },
        {
            "close_approach_date": "2019-06-21",
            "close_approach_date_full": "2019-Jun-21 11:30",
            "epoch_date_close_approach": 1561116600000,
            "relative_velocity": {
                "kilometers_per_second": "11.7384749495",
                "kilometers_per_hour": "42258.5098181003",
                "miles_per_hour": "26257.7946144746"
            },
            "miss_distance": {
                "astronomical": "0.1100483817",
                "lunar": "42.8088204813",
                "kilometers": "16463003.499266979",
                "miles": "10229636.0199191502"
            },
            "orbiting_body": "Earth"
        },
        {
            "close_approach_date": "2019-11-05",
            "close_approach_date_full": "2019-Nov-05 17:41",
            "epoch_date_close_approach": 1572975660000,
            "relative_velocity": {
                "kilometers_per_second": "8.9320012461",
                "kilometers_per_hour": "32155.2044858928",
                "miles_per_hour": "19979.9935873593"
            },
            "miss_distance": {
                "astronomical": "0.3891540763",
                "lunar": "151.3809356807",
                "kilometers": "58216620.916297481",
                "miles": "36174130.8206519978"
            },
            "orbiting_body": "Earth"
        },
        {
            "close_approach_date": "2021-05-30",
            "close_approach_date_full": "2021-May-30 23:13",
            "epoch_date_close_approach": 1622416380000,
            "relative_velocity": {
                "kilometers_per_second": "23.3003049966",
                "kilometers_per_hour": "83881.0979879245",
                "miles_per_hour": "52120.4522469968"
            },
            "miss_distance": {
                "astronomical": "0.462783759",
                "lunar": "180.022882251",
                "kilometers": "69231464.61699333",
                "miles": "43018437.321554754"
            },
            "orbiting_body": "Earth"
        }
    ],
    "orbital_data": {
        "orbit_id": "5",
        "orbit_determination_date": "2019-07-04 05:54:57",
        "first_observation_date": "2019-05-31",
        "last_observation_date": "2019-07-01",
        "data_arc_in_days": 31,
        "observations_used": 43,
        "orbit_uncertainty": "8",
        "minimum_orbit_intersection": ".105552",
        "jupiter_tisserand_invariant": "4.327",
        "epoch_osculation": "2458636.5",
        "eccentricity": ".3882313458350188",
        "semi_major_axis": "1.546546090780371",
        "inclination": "16.73240002237598",
        "ascending_node_longitude": "74.14551039727189",
        "orbital_period": "702.4941761647226",
        "perihelion_distance": ".9461284205608202",
        "perihelion_argument": "252.5428113414823",
        "aphelion_distance": "2.146963760999921",
        "perihelion_time": "2458706.934490180563",
        "mean_anomaly": "323.9051577574117",
        "mean_motion": ".5124597643861268",
        "equinox": "J2000",
        "orbit_class": {
            "orbit_class_type": "APO",
            "orbit_class_description": "Near-Earth asteroid orbits which cross the Earth’s orbit similar to that of 1862 Apollo",
            "orbit_class_range": "a (semi-major axis) > 1.0 AU; q (perihelion) < 1.017 AU"
        }
    },
    "is_sentry_object": false
}